ONEWEB-0634             
1 56075U 23043AF  25098.40519894 -.00000101  00000+0 -30130-3 0  9992
2 56075  87.9114 345.8623 0001408  81.0021 279.1269 13.15546112 99239
ONEWEB-0635             
1 56076U 23043AG  25098.09622245 -.00000109  00000+0 -32375-3 0  9994
2 56076  87.9089 345.9283 0002116  81.3561 278.7809 13.15549005 99221
ONEWEB-0636             
1 56077U 23043AH  25098.39252472  .00000039  00000+0  68344-4 0  9995
2 56077  87.9096 345.8727 0002036  80.0299 280.1061 13.15546994 99240
ONEWEB-0637             
1 56078U 23043AJ  25098.91858399 -.00000149  00000+0 -43033-3 0  9995
2 56078  87.9117 345.7594 0001922  89.0660 271.0690 13.15546592100244
ONEWEB-0647             
1 56079U 23043AK  25098.38143794  .00000070  00000+0  15263-3 0  9998
2 56079  87.9114 345.8772 0001957  75.9578 284.1770 13.15547674 99255
ONEWEB-0651             
1 56080U 23043AL  25098.37668361  .00000186  00000+0  45955-3 0  9990
2 56080  87.9116 345.8639 0002042  85.8131 274.3233 13.15550420100455
ONEWEB-0718             
1 56081U 23043AM  25098.14375466  .00000211  00000+0  52678-3 0  9996
2 56081  87.9116 345.8941 0001336  87.3027 272.8257 13.15550668 99234
ONEWEB-0561             
1 56710U 23068A   25098.42955410  .00000133  00000+0  29501-3 0  9998
2 56710  87.9318   1.0195 0002400  78.4452 281.6951 13.20773308 92118
